#cP2009 12 19  0  0  0.00000000      96     U IGS05 FIT  EMR
## 1562 518400.00000000   900.00000000 55184 0.0000000000000                    
+   32   G01G02G03G04G05G06G07G08G09G10G11G12G13G14G15G16G17
+        G18G19G20G21G22G23G24G25G26G27G28G29G30G31G32 00 00
+         00 00 00 00 00 00 00 00 00 00 00 00 00 00 00 00 00
+         00 00 00 00 00 00 00 00 00 00 00 00 00 00 00 00 00
+         00 00 00 00 00 00 00 00 00 00 00 00 00 00 00 00 00
++         5  5  5  5  5  5  5  5  5  5  5  5  5  5  5  5  5                    
++         5  5  5  5  5  5  5  5  5  5  5  5  5  5  5  0  0                    
++         0  0  0  0  0  0  0  0  0  0  0  0  0  0  0  0  0                    
++         0  0  0  0  0  0  0  0  0  0  0  0  0  0  0  0  0                    
++         0  0  0  0  0  0  0  0  0  0  0  0  0  0  0  0  0                    
%c G  cc GPS ccc cccc cccc cccc cccc ccccc ccccc ccccc ccccc
%c cc cc ccc ccc cccc cccc cccc cccc ccccc ccccc ccccc ccccc                    
%f  1.2500000  1.025000000  0.00000000000  0.000000000000000
%f  0.0000000  0.000000000  0.00000000000  0.000000000000000                    
%i    0    0    0    0      0      0      0      0         0                    
%i    0    0    0    0      0      0      0      0         0                    
/* CCCCCCCCCCCCCCCCCCCCCCCCCCCCCCCCCCCCCCCCCCCCCCCCCCCCCCCCC                    
/* CCCCCCCCCCCCCCCCCCCCCCCCCCCCCCCCCCCCCCCCCCCCCCCCCCCCCCCCC                    
/* CCCCCCCCCCCCCCCCCCCCCCCCCCCCCCCCCCCCCCCCCCCCCCCCCCCCCCCCC                    
/* PCV:IGS05_1454 OL/AL:FES2004  NONE     YN ORB:CoN CLK:CoN                    
*  2009 12 19 12  0  0.00000000                                                 
PG01  -1238.606136  15164.621953 -21868.871757    -72.521774                    
PG02 -18674.406388   5211.274806 -18027.521481    205.413531                    
PG03  17863.550493    331.663264  19401.015074    490.046269                    
PG04 -13985.704011  -7353.035776 -21522.421600   -414.502000                    
PG05 -25891.439505   2771.124221   5437.170283    -26.827041                    
PG06  18549.154119   4250.316840  18747.612757    263.402356                    
PG07   4420.138306 -22897.030595  12558.952422      5.731950                    
PG08  -5363.152176 -15569.665789  20680.655078      1.079305                    
PG09 -15427.213601  21151.643461   3646.845927     94.906876                    
PG10 -26704.133616  -1307.180463    665.048599 999999.999999                    
PG11  10890.510734 -23817.183415   2802.981651    -35.082061                    
PG12 -15671.683432  11538.644883 -17960.749597   -174.505867                    
PG13  -4460.873845 -24613.613038  -9031.299831    306.594193                    
PG14  14740.425136  21093.096646  -6694.433684    -10.311097                    
PG15 -13133.200259   7977.477938  21690.943005   -317.393085                    
PG16  26507.756379   2812.633628  -1460.764846    -21.092177                    
PG17 -15773.588136 -20164.014196  -7394.569388    113.303218                    
PG18   5857.399215  15718.453975  20913.967069     35.768012                    
PG19  12713.020290  -8895.403404  21569.054096     -4.764780                    
PG20  10886.007863 -14244.762262 -19709.761834     65.141811                    
PG21    587.215032  20966.509834  16213.592941    -28.500518                    
PG22  18151.022731  12449.340954  15082.284331    183.671393                    
PG23   4220.124864 -18926.786653 -18038.862834    384.113940                    
PG24 -12679.205693  23119.002361   4271.695771    246.325090                    
PG25   7567.857218 -24757.547445   6717.736413     57.810759                    
PG26  10259.780445  24182.222699    725.960350     -3.300209                    
PG27 -17173.636100  18549.410441   8715.314779    109.690968                    
PG28 -15882.754792 -13165.638975  17356.193694    -24.574590                    
PG29   2183.924763  23610.564179 -11916.843808     83.361383                    
PG30  -3467.566468  15396.376682 -21743.645262    202.948435                    
PG31  14436.820894   4603.334243 -21610.122950    -58.174086                    
PG32  19502.974598  -8326.631065 -15425.478858    134.897598                    
*  2009 12 19 12 15  0.00000000                                                 
PG01  -3704.147416  15126.639776 -21604.508929    -72.523682                    
PG02 -17756.411285   3259.992718 -19406.040816    205.417584                    
PG03  19051.350077   2209.563669  18161.262832    490.051254                    
PG04 -12722.453375  -9432.736759 -21461.837780   -414.518811                    
PG05 -26352.289717   2522.781308   2635.745469    -26.822675                    
PG06  19487.295167   6060.045141  17231.615412    263.401663                    
PG07   5262.547591 -23909.877631  10094.540253      5.731233                    
PG08  -3980.560572 -17420.083631  19436.729570      1.079459                    
PG09 -15296.769012  20476.347496   6462.790811     94.908461                    
PG10 -26629.614390  -1547.375748  -2159.020417    -30.691718                    
PG11  11191.164675 -23184.411114   5470.722028    -35.084136                    
PG12 -17633.427493  11350.883881 -16166.512835   -174.500809                    
PG13  -3830.131938 -23628.385922 -11618.800480    306.594404                    
PG14  14871.137842  21719.243615  -3878.372251    -10.307028                    
PG15 -14375.783774   5840.606846  21591.740790   -317.391695                    
PG16  26168.748980   3006.931950  -4296.684305    -21.095915                    
PG17 -15895.995614 -20887.162998  -4664.784538    113.306436                    
PG18   3484.295370  15675.661635  21442.358586     35.770419                    
PG19  13783.991844  -6666.639229  21739.957527     -4.766677                    
PG20  13053.243143 -14138.480273 -18414.179126     65.141030                    
PG21   -538.846946  22300.123527  14225.819736    -28.502595                    
PG22  16334.759274  12579.898887  16948.056294    183.670641                    
PG23   5378.858095 -17109.551141 -19515.014110    384.113396                    
PG24 -13074.697502  23235.628885   1478.145280    246.328052                    
PG25   7989.942915 -25183.989835   3936.811735     57.820198                    
PG26   9938.183661  23989.880177   3656.262862     -3.302555                    
PG27 -16845.548373  17530.881091  11295.756516    109.696225                    
PG28 -13895.187591 -13184.770742  18985.214036    -24.574583                    
PG29   1300.077895  22373.901481 -14193.517039     83.363910                    
PG30  -5846.624342  15423.435476 -21193.161220    202.951090                    
PG31  13158.500344   6784.557420 -21834.712088    -58.173320                    
PG32  21185.770583  -7946.235974 -13282.435422    134.890559                    
*  2009 12 19 12 30  0.00000000                                                 
PG01  -6118.938343  15216.002210 -20971.418112    -72.526537                    
PG02 -16874.029457   1147.858099 -20448.552715    205.421454                    
PG03  20222.134226   3903.290514  16603.743660    490.057237                    
PG04 -11573.445628 -11551.077239 -21036.618591   -414.535643                    
PG05 -26506.722725   2282.464573   -210.823820    -26.817972                    
PG06  20403.944822   7671.263851  15424.025106    263.401644                    
PG07   5917.058574 -24708.289069   7454.851204      5.730703                    
PG08  -2784.524658 -19209.376038  17852.349441      1.078145                    
PG09 -15070.802113  19504.961356   9164.939703     94.910935                    
PG10 -26253.271222  -1797.802552  -4946.771583    -30.692454                    
PG11  11442.979813 -22277.107696   8041.681489    -35.085906                    
PG12 -19382.821639  11258.488385 -14091.508148   -174.496502                    
PG13  -3007.051820 -22435.376536 -14007.412139    306.594645                    
PG14  14874.291534  22057.712880   -995.892965    -10.302906                    
PG15 -15708.067264   3797.790783  21122.224943   -317.390571                    
PG16  25525.134355   3227.671929  -7059.708732    -21.100069                    
PG17 -15892.944968 -21336.379688  -1855.589041    113.309683                    
PG18   1069.886931  15751.740144  21611.134103     35.772973                    
PG19  14966.492945  -4500.184957  21538.074475     -4.768457                    
PG20  15061.403758 -14125.865575 -16804.346984     65.140219                    
PG21  -1492.752622  23477.592957  11990.387709    -28.504799                    
PG22  14334.539919  12801.785749  18526.375298    183.669633                    
PG23   6710.269876 -15232.945773 -20653.265473    384.112797                    
PG24 -13305.987153  23099.352628  -1340.433379    246.332248                    
PG25   8272.848644 -25338.500128   1089.309697     57.830071                    
PG26   9438.260249  23525.203652   6521.129570     -3.305118                    
PG27 -16458.975180  16246.966801  13687.184284    109.699393                    
PG28 -11748.549306 -13315.346389  20302.152562    -24.574327                    
PG29    226.149396  20975.251754 -16225.033510     83.366516                    
PG30  -8142.156380  15567.013807 -20289.874637    202.953995                    
PG31  11996.792108   9036.045283 -21675.898682    -58.172140                    
PG32  22624.673724  -7663.158264 -10902.276308    134.883392                    
EOF                                                                             
